FORMOSAT-3 FM3          
1 29050U 06011D   17345.85742444  .00000220  00000-0  56886-4 0  9993
2 29050  72.0147 142.7964 0050588 196.1742 163.7799 14.58600112622479
